OBJECT_NAME,OBJECT_ID,EPOCH,MEAN_MOTION,ECCENTRICITY,INCLINATION,RA_OF_ASC_NODE,ARG_OF_PERICENTER,MEAN_ANOMALY,EPHEMERIS_TYPE,CLASSIFICATION_TYPE,NORAD_CAT_ID,ELEMENT_SET_NO,REV_AT_EPOCH,BSTAR,MEAN_MOTION_DOT,MEAN_MOTION_DDOT
SWARM A,2013-067B,2026-06-18T19:59:05.795808,15.50980089,.0003027,87.3319,55.6302,96.0481,264.1125,0,U,39452,999,70650,.14E-3,.8159E-4,0
SWARM C,2013-067C,2026-06-18T19:58:56.150976,15.50978805,.0003027,87.3318,54.2113,96.2667,263.8939,0,U,39453,999,70646,.14161E-3,.8252E-4,0
BRITE-CA1 (TORONTO),2014-033L,2026-06-18T14:24:43.875648,14.72678402,.0077213,97.9742,298.5023,272.4058,86.8311,0,U,40020,999,64242,.93677E-4,.571E-5,0
OCO 2,2014-035A,2026-06-18T19:17:06.797760,14.57112392,.0001504,98.2017,111.0720,84.7533,275.3837,0,U,40059,999,63628,.80029E-4,.315E-5,0
BRITE-PL2 (HEWELIUSZ),2014-049B,2026-06-18T18:41:57.182784,14.94598146,.0015333,97.9100,281.7913,103.7702,256.5226,0,U,40119,999,64168,.15283E-3,.1598E-4,0
MMS 1,2015-011A,2026-06-18T22:00:01.998720,0.28347433,.8322315,72.1776,348.7646,167.4849,114.8730,0,U,40482,999,138,0,-.68E-5,0
MMS 2,2015-011B,2026-06-18T22:00:01.998720,0.28347450,.83231,72.1778,348.7668,167.4905,114.8618,0,U,40483,999,138,0,-.68E-5,0
MMS 3,2015-011C,2026-06-18T22:00:01.998720,0.28347300,.8322239,72.1794,348.7717,167.4850,114.8571,0,U,40484,999,138,0,-.68E-5,0
MMS 4,2015-011D,2026-06-18T22:00:01.998720,0.28347410,.8321894,72.1770,348.7670,167.4929,114.8457,0,U,40485,999,138,0,-.68E-5,0
ASTROSAT,2015-052A,2026-06-18T04:01:43.467744,14.82508881,.00077217,5.9954,148.2888,46.0722,314.0042,0,U,40930,999,57997,.87537357E-4,.139E-4,0
DAMPE,2015-078A,2026-06-18T20:49:53.059872,15.30788879,.0013794,97.4553,175.3432,71.8291,288.4450,0,U,41173,999,58480,.37464E-4,.1039E-4,0
PISAT,2016-059B,2026-06-18T17:03:22.016736,14.68985598,.0028518,97.8178,170.0980,197.7841,162.2369,0,U,41784,999,51996,.11973E-3,.658E-5,0
HXMT (HUIYAN),2017-034A,2026-06-18T20:16:12.227808,15.18484769,.003079,43.0125,173.8119,157.8655,202.3530,0,U,42758,999,49791,.11129E-3,.2117E-4,0
FLYING LAPTOP,2017-042G,2026-06-18T20:26:49.515072,15.01155413,.0019612,97.4694,325.3204,116.1799,244.1446,0,U,42831,999,48670,.23235E-3,.2932E-4,0
ZHANGHENG 1-01 (CSES-1),2018-015C,2026-06-18T20:23:32.519616,15.20828864,.0017085,97.6875,335.5396,260.1248,99.8058,0,U,43194,999,46489,.24971E-3,.5456E-4,0
SALSAT,2020-068K,2026-06-18T10:53:20.067072,15.29814902,.0007987,97.8850,172.5954,302.8690,57.1780,0,U,46495,999,31555,.21401E-3,.61E-4,0
IXPE,2021-121A,2026-06-18T20:00:01.999008,15.10263579,.000724,0.2309,305.1380,106.0013,183.4064,0,U,49954,999,581,.52018E-3,.9702E-4,0
SMILE,2026-109A,2026-06-07T09:11:54.544416,7.54049028,.3310191,69.9787,209.3069,288.5544,45.7342,0,U,69123,999,248,-.36778157E-3,-.41E-6,0
